$$SOE
2461302.500000000, A.D. 2026-Sep-19 00:00:00.0000, -2.272630874502368E+08, -1.783002238435580E+08, -8.314672282233372E+06,
2461309.500000000, A.D. 2026-Sep-26 00:00:00.0000, -2.179705878810134E+08, -1.881686866639094E+08, -8.068842502910569E+06,
2461316.500000000, A.D. 2026-Oct-03 00:00:00.0000, -2.082355670919162E+08, -1.976550742225142E+08, -7.806630163971841E+06,
2461323.500000000, A.D. 2026-Oct-10 00:00:00.0000, -1.980739951501178E+08, -2.067365303153755E+08, -7.528425375726432E+06,
2461330.500000000, A.D. 2026-Oct-17 00:00:00.0000, -1.875032679624986E+08, -2.153908883994329E+08, -7.234668095698938E+06,
2461337.500000000, A.D. 2026-Oct-24 00:00:00.0000, -1.765421794916365E+08, -2.235967827287533E+08, -6.925847841931999E+06,
2461344.500000000, A.D. 2026-Oct-31 00:00:00.0000, -1.652108833525674E+08, -2.313337591600724E+08, -6.602503085570320E+06,
2461351.500000000, A.D. 2026-Nov-07 00:00:00.0000, -1.535308432935616E+08, -2.385823843659580E+08, -6.265220335823253E+06,
2461358.500000000, A.D. 2026-Nov-14 00:00:00.0000, -1.415247723564899E+08, -2.453243513347210E+08, -5.914632855956942E+06,
2461365.500000000, A.D. 2026-Nov-21 00:00:00.0000, -1.292165626879699E+08, -2.515425792167916E+08, -5.551418786329225E+06,
2461372.500000000, A.D. 2026-Nov-28 00:00:00.0000, -1.166312073273485E+08, -2.572213092697031E+08, -5.176298832599446E+06,
2461379.500000000, A.D. 2026-Dec-05 00:00:00.0000, -1.037947108548891E+08, -2.623461963365665E+08, -4.790033914634377E+06,
2461386.500000000, A.D. 2026-Dec-12 00:00:00.0000, -9.073398941199364E+07, -2.669043915829583E+08, -4.393422552197605E+06,
2461393.500000000, A.D. 2026-Dec-19 00:00:00.0000, -7.747676282014856E+07, -2.708846154012323E+08, -3.987297834235772E+06,
2461400.500000000, A.D. 2026-Dec-26 00:00:00.0000, -6.405143993095458E+07, -2.742772203723934E+08, -3.572524055415705E+06,
2461407.500000000, A.D. 2027-Jan-02 00:00:00.0000, -5.048699805531414E+07, -2.770742436284971E+08, -3.149993091869593E+06,
2461414.500000000, A.D. 2027-Jan-09 00:00:00.0000, -3.681285758904008E+07, -2.792694478999779E+08, -2.720620561652496E+06,
2461421.500000000, A.D. 2027-Jan-16 00:00:00.0000, -2.305875312067205E+07, -2.808583507198138E+08, -2.285341813262179E+06,
2461428.500000000, A.D. 2027-Jan-23 00:00:00.0000, -9.254602361714572E+06, -2.818382414940313E+08, -1.845107792846188E+06,
2461435.500000000, A.D. 2027-Jan-30 00:00:00.0000, 4.569625866189772E+06, -2.822081863460476E+08, -1.400880855717838E+06,
2461442.500000000, A.D. 2027-Feb-06 00:00:00.0000, 1.838404358779094E+07, -2.819690204443369E+08, -9.536305790492743E+05,
2461449.500000000, A.D. 2027-Feb-13 00:00:00.0000, 3.215897371908804E+07, -2.811233268317045E+08, -5.043294800363928E+05,
2461456.500000000, A.D. 2027-Feb-20 00:00:00.0000, 4.586507449896596E+07, -2.796754029642207E+08, -5.394853316727281E+04,
2461463.500000000, A.D. 2027-Feb-27 00:00:00.0000, 5.947345845188279E+07, -2.776312187588143E+08, 3.965470782066435E+05,
2461470.500000000, A.D. 2027-Mar-06 00:00:00.0000, 7.295580775681427E+07, -2.749983649710769E+08, 8.462018146438450E+05,
2461477.500000000, A.D. 2027-Mar-13 00:00:00.0000, 8.628448340445282E+07, -2.717859907337404E+08, 1.294073514418945E+06,
2461484.500000000, A.D. 2027-Mar-20 00:00:00.0000, 9.943262613638100E+07, -2.680047320782846E+08, 1.739237010592878E+06,
2461491.500000000, A.D. 2027-Mar-27 00:00:00.0000, 1.123742486424468E+08, -2.636666330608201E+08, 2.180787539791569E+06,
2461498.500000000, A.D. 2027-Apr-03 00:00:00.0000, 1.250843186464522E+08, -2.587850606696110E+08, 2.617843897256747E+06,
2461505.500000000, A.D. 2027-Apr-10 00:00:00.0000, 1.375388325202489E+08, -2.533746146444362E+08, 3.049551315704972E+06,
2461512.500000000, A.D. 2027-Apr-17 00:00:00.0000, 1.497148791838058E+08, -2.474510333654759E+08, 3.475084048358098E+06,
2461519.500000000, A.D. 2027-Apr-24 00:00:00.0000, 1.615906942752346E+08, -2.410310969922382E+08, 3.893647629990339E+06,
2461526.500000000, A.D. 2027-May-01 00:00:00.0000, 1.731457049618929E+08, -2.341325289241052E+08, 4.304480783500105E+06,
2461533.500000000, A.D. 2027-May-08 00:00:00.0000, 1.843605659063597E+08, -2.267738959085129E+08, 4.706857006379858E+06,
2461540.500000000, A.D. 2027-May-15 00:00:00.0000, 1.952171851972215E+08, -2.189745068587128E+08, 5.100086059759304E+06,
2461547.500000000, A.D. 2027-May-22 00:00:00.0000, 2.056987390723210E+08, -2.107543138936659E+08, 5.483515301565632E+06,
2461554.500000000, A.D. 2027-May-29 00:00:00.0000, 2.157896792640491E+08, -2.021338178830065E+08, 5.856530447401553E+06,
2461561.500000000, A.D. 2027-Jun-05 00:00:00.0000, 2.254757344000063E+08, -1.931339760810024E+08, 6.218555947721981E+06,
2461568.500000000, A.D. 2027-Jun-12 00:00:00.0000, 2.347439040551735E+08, -1.837761120361882E+08, 6.569055216796286E+06,
2461575.500000000, A.D. 2027-Jun-19 00:00:00.0000, 2.435824457646984E+08, -1.740818292304950E+08, 6.907530685085692E+06,
2461582.500000000, A.D. 2027-Jun-26 00:00:00.0000, 2.519808559388550E+08, -1.640729291303425E+08, 7.233523647023596E+06,
2461589.500000000, A.D. 2027-Jul-03 00:00:00.0000, 2.599298454832456E+08, -1.537713339692321E+08, 7.546613912723556E+06,
2461596.500000000, A.D. 2027-Jul-10 00:00:00.0000, 2.674213108286401E+08, -1.431990144932698E+08, 7.846419281488277E+06,
2461603.500000000, A.D. 2027-Jul-17 00:00:00.0000, 2.744483010589864E+08, -1.323779228673926E+08, 8.132594851027705E+06,
2461610.500000000, A.D. 2027-Jul-24 00:00:00.0000, 2.810049819195739E+08, -1.213299308872506E+08, 8.404832162232116E+06,
2461617.500000000, A.D. 2027-Jul-31 00:00:00.0000, 2.870865977129489E+08, -1.100767732703861E+08, 8.662858179623429E+06,
2461624.500000000, A.D. 2027-Aug-07 00:00:00.0000, 2.926894314534575E+08, -9.863999482621448E+07, 8.906434239762105E+06,
2461631.500000000, A.D. 2027-Aug-14 00:00:00.0000, 2.978107615151634E+08, -8.704090166877703E+07, 9.135355177365176E+06,
2461638.500000000, A.D. 2027-Aug-21 00:00:00.0000, 3.024488158734859E+08, -7.530051970373505E+07, 9.349448313557129E+06,
2461645.500000000, A.D. 2027-Aug-28 00:00:00.0000, 3.066027278056603E+08, -6.343955901022557E+07, 9.548572104003303E+06,
2461652.500000000, A.D. 2027-Sep-04 00:00:00.0000, 3.102724922642779E+08, -5.147838141133980E+07, 9.732614773515524E+06,
2461659.500000000, A.D. 2027-Sep-11 00:00:00.0000, 3.134589218805104E+08, -3.943697167198686E+07, 9.901493023572717E+06,
2461666.500000000, A.D. 2027-Sep-18 00:00:00.0000, 3.161636030356902E+08, -2.733491273485020E+07, 1.005515075806152E+07,
2461673.500000000, A.D. 2027-Sep-25 00:00:00.0000, 3.183888524928197E+08, -1.519136481820589E+07, 1.019355780896943E+07,
2461680.500000000, A.D. 2027-Oct-02 00:00:00.0000, 3.201376748892004E+08, -3.025048084194701E+06, 1.031670866541471E+07,
2461687.500000000, A.D. 2027-Oct-09 00:00:00.0000, 3.214137213081694E+08, 9.145771385606907E+06, 1.042462121105450E+07,
2461694.500000000, A.D. 2027-Oct-16 00:00:00.0000, 3.222212491613450E+08, 2.130329251642276E+07, 1.051733546665294E+07,
2461701.500000000, A.D. 2027-Oct-23 00:00:00.0000, 3.225650837801299E+08, 3.343018731621265E+07, 1.059491231949229E+07,
2461708.500000000, A.D. 2027-Oct-30 00:00:00.0000, 3.224505821944657E+08, 4.550960695505860E+07, 1.065743225932803E+07,
2461715.500000000, A.D. 2027-Nov-06 00:00:00.0000, 3.218835980112321E+08, 5.752518721697062E+07, 1.070499432401157E+07,
2461722.500000000, A.D. 2027-Nov-13 00:00:00.0000, 3.208704454719937E+08, 6.946105147738960E+07, 1.073771527205099E+07,
2461729.500000000, A.D. 2027-Nov-20 00:00:00.0000, 3.194178656306856E+08, 8.130180922985779E+07, 1.075572853931218E+07,
2461736.500000000, A.D. 2027-Nov-27 00:00:00.0000, 3.175329962774378E+08, 9.303255332840411E+07, 1.075918307417252E+07,
2461743.500000000, A.D. 2027-Dec-04 00:00:00.0000, 3.152233435824014E+08, 1.046388570547577E+08, 1.074824231240901E+07,
2461750.500000000, A.D. 2027-Dec-11 00:00:00.0000, 3.124967548979994E+08, 1.161067702287830E+08, 1.072308326446713E+07,
2461757.500000000, A.D. 2027-Dec-18 00:00:00.0000, 3.093613929734100E+08, 1.274228141922596E+08, 1.068389566268151E+07,
2461764.500000000, A.D. 2027-Dec-25 00:00:00.0000, 3.058257117034696E+08, 1.385739758205020E+08, 1.063088115451443E+07,
2461771.500000000, A.D. 2028-Jan-01 00:00:00.0000, 3.018984334169016E+08, 1.495477007202326E+08, 1.056425253910249E+07,
$$EOE